{"type": "FeatureCollection", "features": [ {"type": "Feature", "properties": {"norad_id": 66907, "name": "1998-067XT", "group": "last-30-days", "lat": 28.922535032428325, "lon": -177.54894406930683, "alt_km": 413.6197579478494, "timestamp": "2025-12-09T21:34:10.197090+00:00", "meta": {"OBJECT_NAME": "1998-067XT", "OBJECT_ID": "1998-067XT", "EPOCH": "2025-12-09T12:07:37.114752", "MEAN_MOTION": 15.50864429, "ECCENTRICITY": 0.00048036, "INCLINATION": 51.6307, "RA_OF_ASC_NODE": 158.4423, "ARG_OF_PERICENTER": 208.5081, "MEAN_ANOMALY": 151.5646, "EPHEMERIS_TYPE": 0, "CLASSIFICATION_TYPE": "U", "NORAD_CAT_ID": 66907, "ELEMENT_SET_NO": 999, "REV_AT_EPOCH": 111, "BSTAR": 0.0012921241, "MEAN_MOTION_DOT": 0.00076342, "MEAN_MOTION_DDOT": 0}, "tle": {"line1": "1 66907U 98067XT  25343.50529068  .00076342  00000+0  12921-2 0  9998", "line2": "2 66907  51.6307 158.4423 0004803 208.5081 151.5646 15.50864429  1113"}}, "geometry": {"type": "Point", "coordinates": [-177.54894406930683, 28.922535032428325]}}, {"type": "Feature", "properties": {"norad_id": 66908, "name": "1998-067XU", "group": "last-30-days", "lat": 29.75940634809372, "lon": -176.57633913128402, "alt_km": 413.4662694099479, "timestamp": "2025-12-09T21:34:10.197100+00:00", "meta": {"OBJECT_NAME": "1998-067XU", "OBJECT_ID": "1998-067XU", "EPOCH": "2025-12-09T15:12:54.016992", "MEAN_MOTION": 15.50928353, "ECCENTRICITY": 0.00050029, "INCLINATION": 51.6301, "RA_OF_ASC_NODE": 157.8011, "ARG_OF_PERICENTER": 207.486, "MEAN_ANOMALY": 152.5865, "EPHEMERIS_TYPE": 0, "CLASSIFICATION_TYPE": "U", "NORAD_CAT_ID": 66908, "ELEMENT_SET_NO": 999, "REV_AT_EPOCH": 113, "BSTAR": 0.0012603324, "MEAN_MOTION_DOT": 0.00074609, "MEAN_MOTION_DDOT": 0}, "tle": {"line1": "1 66908U 98067XU  25343.63395853  .00074609  00000+0  12603-2 0  9997", "line2": "2 66908  51.6301 157.8011 0005002 207.4860 152.5865 15.50928353  1132"}}, "geometry": {"type": "Point", "coordinates": [-176.57633913128402, 29.75940634809372]}}, {"type": "Feature", "properties": {"norad_id": 66909, "name": "SILVERSAT", "group": "last-30-days", "lat": 30.48310209245646, "lon": -175.71586369936924, "alt_km": 412.9872230813653, "timestamp": "2025-12-09T21:34:10.197112+00:00", "meta": {"OBJECT_NAME": "SILVERSAT", "OBJECT_ID": "1998-067XV", "EPOCH": "2025-12-09T15:12:39.386016", "MEAN_MOTION": 15.5102294, "ECCENTRICITY": 0.00048745, "INCLINATION": 51.6303, "RA_OF_ASC_NODE": 157.7998, "ARG_OF_PERICENTER": 209.5362, "MEAN_ANOMALY": 150.5352, "EPHEMERIS_TYPE": 0, "CLASSIFICATION_TYPE": "U", "NORAD_CAT_ID": 66909, "ELEMENT_SET_NO": 999, "REV_AT_EPOCH": 113, "BSTAR": 0.0013732623, "MEAN_MOTION_DOT": 0.00081682, "MEAN_MOTION_DDOT": 0}, "tle": {"line1": "1 66909U 98067XV  25343.63378919  .00081682  00000+0  13733-2 0  9996", "line2": "2 66909  51.6303 157.7998 0004874 209.5362 150.5352 15.51022940  1131"}}, "geometry": {"type": "Point", "coordinates": [-175.71586369936924, 30.48310209245646]}}, {"type": "Feature", "properties": {"norad_id": 66910, "name": "1998-067XW", "group": "last-30-days", "lat": 35.01863001711785, "lon": -169.80863243750088, "alt_km": 411.79827407528046, "timestamp": "2025-12-09T21:34:10.197124+00:00", "meta": {"OBJECT_NAME": "1998-067XW", "OBJECT_ID": "1998-067XW", "EPOCH": "2025-12-08T22:10:28.285536", "MEAN_MOTION": 15.51111527, "ECCENTRICITY": 0.0005924, "INCLINATION": 51.6296, "RA_OF_ASC_NODE": 161.31, "ARG_OF_PERICENTER": 189.6176, "MEAN_ANOMALY": 170.4701, "EPHEMERIS_TYPE": 0, "CLASSIFICATION_TYPE": "U", "NORAD_CAT_ID": 66910, "ELEMENT_SET_NO": 999, "REV_AT_EPOCH": 102, "BSTAR": 0.0011826614, "MEAN_MOTION_DOT": 0.00070418, "MEAN_MOTION_DDOT": 0}, "tle": {"line1": "1 66910U 98067XW  25342.92393849  .00070418  00000+0  11827-2 0  9995", "line2": "2 66910  51.6296 161.3100 0005924 189.6176 170.4701 15.51111527  1025"}}, "geometry": {"type": "Point", "coordinates": [-169.80863243750088, 35.01863001711785]}}, {"type": "Feature", "properties": {"norad_id": 66911, "name": "1998-067XX", "group": "last-30-days", "lat": 36.23568874773019, "lon": -168.03802026856863, "alt_km": 410.97293377348797, "timestamp": "2025-12-09T21:34:10.197134+00:00", "meta": {"OBJECT_NAME": "1998-067XX", "OBJECT_ID": "1998-067XX", "EPOCH": "2025-12-09T02:48:25.040736", "MEAN_MOTION": 15.51276485, "ECCENTRICITY": 0.00057034, "INCLINATION": 51.6296, "RA_OF_ASC_NODE": 160.3494, "ARG_OF_PERICENTER": 191.2268, "MEAN_ANOMALY": 168.8595, "EPHEMERIS_TYPE": 0, "CLASSIFICATION_TYPE": "U", "NORAD_CAT_ID": 66911, "ELEMENT_SET_NO": 999, "REV_AT_EPOCH": 104, "BSTAR": 0.0014245982, "MEAN_MOTION_DOT": 0.00085582, "MEAN_MOTION_DDOT": 0}, "tle": {"line1": "1 66911U 98067XX  25343.11695649  .00085582  00000+0  14246-2 0  9997", "line2": "2 66911  51.6296 160.3494 0005703 191.2268 168.8595 15.51276485  1046"}}, "geometry": {"type": "Point", "coordinates": [-168.03802026856863, 36.23568874773019]}}, {"type": "Feature", "properties": {"norad_id": 66912, "name": "1998-067XY", "group": "last-30-days", "lat": 26.983811468162884, "lon": -179.71510299443486, "alt_km": 414.7005453815582, "timestamp": "2025-12-09T21:34:10.197146+00:00", "meta": {"OBJECT_NAME": "1998-067XY", "OBJECT_ID": "1998-067XY", "EPOCH": "2025-12-08T19:07:24.168000", "MEAN_MOTION": 15.50590071, "ECCENTRICITY": 0.00050436, "INCLINATION": 51.6301, "RA_OF_ASC_NODE": 161.961, "ARG_OF_PERICENTER": 202.8278, "MEAN_ANOMALY": 157.2488, "EPHEMERIS_TYPE": 0, "CLASSIFICATION_TYPE": "U", "NORAD_CAT_ID": 66912, "ELEMENT_SET_NO": 999, "REV_AT_EPOCH": 99, "BSTAR": 0.0009627216, "MEAN_MOTION_DOT": 0.00056065, "MEAN_MOTION_DDOT": 0}, "tle": {"line1": "1 66912U 98067XY  25342.79680750  .00056065  00000+0  96272-3 0  9992", "line2": "2 66912  51.6301 161.9610 0005043 202.8278 157.2488 15.50590071   993"}}, "geometry": {"type": "Point", "coordinates": [-179.71510299443486, 26.983811468162884]}}, {"type": "Feature", "properties": {"norad_id": 66913, "name": "2025-284A", "group": "last-30-days", "lat": 16.840730544815546, "lon": 136.30121305359873, "alt_km": 512.8329888831659, "timestamp": "2025-12-09T21:34:10.197157+00:00", "meta": {"OBJECT_NAME": "2025-284A", "OBJECT_ID": "2025-284A", "EPOCH": "2025-12-09T15:10:11.985888", "MEAN_MOTION": 15.18825545, "ECCENTRICITY": 0.00080906, "INCLINATION": 80.4055, "RA_OF_ASC_NODE": 133.7041, "ARG_OF_PERICENTER": 256.8468, "MEAN_ANOMALY": 103.1857, "EPHEMERIS_TYPE": 0, "CLASSIFICATION_TYPE": "U", "NORAD_CAT_ID": 66913, "ELEMENT_SET_NO": 999, "REV_AT_EPOCH": 65, "BSTAR": 0.00072167487, "MEAN_MOTION_DOT": 0.0001507, "MEAN_MOTION_DDOT": 0}, "tle": {"line1": "1 66913U 25284A   25343.63208317  .00015070  00000+0  72167-3 0  9991", "line2": "2 66913  80.4055 133.7041 0008090 256.8468 103.1857 15.18825545   654"}}, "geometry": {"type": "Point", "coordinates": [136.30121305359873, 16.840730544815546]}}, {"type": "Feature", "properties": {"norad_id": 66914, "name": "2025-284B", "group": "last-30-days", "lat": 16.839745374130683, "lon": 136.3010313929959, "alt_km": 512.8384299761374, "timestamp": "2025-12-09T21:34:10.197169+00:00", "meta": {"OBJECT_NAME": "2025-284B", "OBJECT_ID": "2025-284B", "EPOCH": "2025-12-09T15:10:11.987616", "MEAN_MOTION": 15.18824801, "ECCENTRICITY": 0.000809, "INCLINATION": 80.4055, "RA_OF_ASC_NODE": 133.7041, "ARG_OF_PERICENTER": 256.821, "MEAN_ANOMALY": 103.2115, "EPHEMERIS_TYPE": 0, "CLASSIFICATION_TYPE": "U", "NORAD_CAT_ID": 66914, "ELEMENT_SET_NO": 999, "REV_AT_EPOCH": 65, "BSTAR": 0.00069224, "MEAN_MOTION_DOT": 0.00014455, "MEAN_MOTION_DDOT": 0}, "tle": {"line1": "1 66914U 25284B   25343.63208319  .00014455  00000+0  69224-3 0  9990", "line2": "2 66914  80.4055 133.7041 0008090 256.8210 103.2115 15.18824801   652"}}, "geometry": {"type": "Point", "coordinates": [136.3010313929959, 16.839745374130683]}}, {"type": "Feature", "properties": {"norad_id": 66915, "name": "HULIANWANG DIGUI 14A", "group": "last-30-days", "lat": -20.922005074830174, "lon": -32.41348188876074, "alt_km": 875.2668018149507, "timestamp": "2025-12-09T21:34:10.197181+00:00", "meta": {"OBJECT_NAME": "HULIANWANG DIGUI 14A", "OBJECT_ID": "2025-285A", "EPOCH": "2025-12-09T15:27:54.256608", "MEAN_MOTION": 14.05466034, "ECCENTRICITY": 0.00080971, "INCLINATION": 50.0033, "RA_OF_ASC_NODE": 129.905, "ARG_OF_PERICENTER": 272.0032, "MEAN_ANOMALY": 87.9946, "EPHEMERIS_TYPE": 0, "CLASSIFICATION_TYPE": "U", "NORAD_CAT_ID": 66915, "ELEMENT_SET_NO": 999, "REV_AT_EPOCH": 47, "BSTAR": 1.367601e-05, "MEAN_MOTION_DOT": -1.3e-06, "MEAN_MOTION_DDOT": 0}, "tle": {"line1": "1 66915U 25285A   25343.64437797 -.00000130  00000+0  13676-4 0  9994", "line2": "2 66915  50.0033 129.9050 0008097 272.0032  87.9946 14.05466034   473"}}, "geometry": {"type": "Point", "coordinates": [-32.41348188876074, -20.922005074830174]}}, {"type": "Feature", "properties": {"norad_id": 66916, "name": "HULIANWANG DIGUI 14B", "group": "last-30-days", "lat": -21.393201989857815, "lon": -31.933213509577346, "alt_km": 875.045157372675, "timestamp": "2025-12-09T21:34:10.197191+00:00", "meta": {"OBJECT_NAME": "HULIANWANG DIGUI 14B", "OBJECT_ID": "2025-285B", "EPOCH": "2025-12-09T15:27:44.373312", "MEAN_MOTION": 14.05512338, "ECCENTRICITY": 0.00069531, "INCLINATION": 50.0045, "RA_OF_ASC_NODE": 129.9057, "ARG_OF_PERICENTER": 266.8339, "MEAN_ANOMALY": 93.1771, "EPHEMERIS_TYPE": 0, "CLASSIFICATION_TYPE": "U", "NORAD_CAT_ID": 66916, "ELEMENT_SET_NO": 999, "REV_AT_EPOCH": 47, "BSTAR": 1.4195962e-05, "MEAN_MOTION_DOT": -1.29e-06, "MEAN_MOTION_DDOT": 0}, "tle": {"line1": "1 66916U 25285B   25343.64426358 -.00000129  00000+0  14196-4 0  9992", "line2": "2 66916  50.0045 129.9057 0006953 266.8339  93.1771 14.05512338   478"}}, "geometry": {"type": "Point", "coordinates": [-31.933213509577346, -21.393201989857815]}}]}